{"type": "FeatureCollection", "features": [ {"type": "Feature", "properties": {"norad_id": 66957, "name": "HULIANWANG DIGUI 15E", "group": "last-30-days", "lat": -48.463575435202785, "lon": -17.100812014749597, "alt_km": 1010.3932285921992, "timestamp": "2025-12-10T18:56:58.834595+00:00", "meta": {"OBJECT_NAME": "HULIANWANG DIGUI 15E", "OBJECT_ID": "2025-287E", "EPOCH": "2025-12-10T06:54:44.091648", "MEAN_MOTION": 13.69509093, "ECCENTRICITY": 0.00068937, "INCLINATION": 86.4941, "RA_OF_ASC_NODE": 347.0505, "ARG_OF_PERICENTER": 197.7318, "MEAN_ANOMALY": 162.3602, "EPHEMERIS_TYPE": 0, "CLASSIFICATION_TYPE": "U", "NORAD_CAT_ID": 66957, "ELEMENT_SET_NO": 999, "REV_AT_EPOCH": 19, "BSTAR": -0.00019855955, "MEAN_MOTION_DOT": -1.56e-06, "MEAN_MOTION_DDOT": 0}, "tle": {"line1": "1 66957U 25287E   25344.28801032 -.00000156  00000+0 -19856-3 0  9994", "line2": "2 66957  86.4941 347.0505 0006893 197.7318 162.3602 13.69509093   198"}}, "geometry": {"type": "Point", "coordinates": [-17.100812014749597, -48.463575435202785]}}, {"type": "Feature", "properties": {"norad_id": 66958, "name": "CZ-6A R/B", "group": "last-30-days", "lat": 60.830541182906735, "lon": 160.55807242373538, "alt_km": 828.8635779522492, "timestamp": "2025-12-10T18:56:58.834605+00:00", "meta": {"OBJECT_NAME": "CZ-6A R/B", "OBJECT_ID": "2025-287F", "EPOCH": "2025-12-10T06:20:13.635744", "MEAN_MOTION": 13.94918883, "ECCENTRICITY": 0.01071678, "INCLINATION": 86.5058, "RA_OF_ASC_NODE": 347.042, "ARG_OF_PERICENTER": 109.571, "MEAN_ANOMALY": 251.7073, "EPHEMERIS_TYPE": 0, "CLASSIFICATION_TYPE": "U", "NORAD_CAT_ID": 66958, "ELEMENT_SET_NO": 999, "REV_AT_EPOCH": 19, "BSTAR": 0.00083680097, "MEAN_MOTION_DOT": 1.198e-05, "MEAN_MOTION_DDOT": 0}, "tle": {"line1": "1 66958U 25287F   25344.26404671  .00001198  00000+0  83680-3 0  9992", "line2": "2 66958  86.5058 347.0420 0107167 109.5710 251.7073 13.94918883   192"}}, "geometry": {"type": "Point", "coordinates": [160.55807242373538, 60.830541182906735]}}, {"type": "Feature", "properties": {"norad_id": 66988, "name": "YAOGAN-47", "group": "last-30-days", "lat": 69.81353163749739, "lon": -109.04291171275979, "alt_km": 487.33241415006887, "timestamp": "2025-12-10T18:56:58.834615+00:00", "meta": {"OBJECT_NAME": "YAOGAN-47", "OBJECT_ID": "2025-289A", "EPOCH": "2025-12-10T10:35:37.042080", "MEAN_MOTION": 15.2375358, "ECCENTRICITY": 0.0003184, "INCLINATION": 97.5219, "RA_OF_ASC_NODE": 49.5452, "ARG_OF_PERICENTER": 188.4341, "MEAN_ANOMALY": 171.6843, "EPHEMERIS_TYPE": 0, "CLASSIFICATION_TYPE": "U", "NORAD_CAT_ID": 66988, "ELEMENT_SET_NO": 999, "REV_AT_EPOCH": 19, "BSTAR": 0.00024588, "MEAN_MOTION_DOT": 5.84e-05, "MEAN_MOTION_DDOT": 0}, "tle": {"line1": "1 66988U 25289A   25344.44140095  .00005840  00000+0  24588-3 0  9994", "line2": "2 66988  97.5219  49.5452 0003184 188.4341 171.6843 15.23753580   195"}}, "geometry": {"type": "Point", "coordinates": [-109.04291171275979, 69.81353163749739]}}, {"type": "Feature", "properties": {"norad_id": 66989, "name": "CZ-4B R/B", "group": "last-30-days", "lat": -29.565490698977097, "lon": 54.28815902237931, "alt_km": 296.46931518548536, "timestamp": "2025-12-10T18:56:58.834625+00:00", "meta": {"OBJECT_NAME": "CZ-4B R/B", "OBJECT_ID": "2025-289B", "EPOCH": "2025-12-10T14:28:25.343040", "MEAN_MOTION": 15.66312523, "ECCENTRICITY": 0.0151927, "INCLINATION": 97.5247, "RA_OF_ASC_NODE": 49.7881, "ARG_OF_PERICENTER": 11.1182, "MEAN_ANOMALY": 349.3371, "EPHEMERIS_TYPE": 0, "CLASSIFICATION_TYPE": "U", "NORAD_CAT_ID": 66989, "ELEMENT_SET_NO": 999, "REV_AT_EPOCH": 23, "BSTAR": 0.00028721, "MEAN_MOTION_DOT": 0.00055635, "MEAN_MOTION_DDOT": 3.0614e-06}, "tle": {"line1": "1 66989U 25289B   25344.60307110  .00055635  30614-5  28721-3 0  9996", "line2": "2 66989  97.5247  49.7881 0151927  11.1182 349.3371 15.66312523   239"}}, "geometry": {"type": "Point", "coordinates": [54.28815902237931, -29.565490698977097]}}, {"type": "Feature", "properties": {"norad_id": 66990, "name": "TJS-22", "group": "last-30-days", "lat": 1.924946359161581, "lon": -53.723415300658274, "alt_km": 35526.16937646801, "timestamp": "2025-12-10T18:56:58.834653+00:00", "meta": {"OBJECT_NAME": "TJS-22", "OBJECT_ID": "2025-290A", "EPOCH": "2025-12-10T07:11:32.843616", "MEAN_MOTION": 2.15443148, "ECCENTRICITY": 0.6664534, "INCLINATION": 20.1261, "RA_OF_ASC_NODE": 301.1464, "ARG_OF_PERICENTER": 180.6877, "MEAN_ANOMALY": 177.6237, "EPHEMERIS_TYPE": 0, "CLASSIFICATION_TYPE": "U", "NORAD_CAT_ID": 66990, "ELEMENT_SET_NO": 999, "REV_AT_EPOCH": 3, "BSTAR": 0.079788, "MEAN_MOTION_DOT": -3.8e-07, "MEAN_MOTION_DDOT": 0}, "tle": {"line1": "1 66990U 25290A   25344.29968569 -.00000038  00000+0  79788-1 0  9991", "line2": "2 66990  20.1261 301.1464 6664534 180.6877 177.6237  2.15443148    32"}}, "geometry": {"type": "Point", "coordinates": [-53.723415300658274, 1.924946359161581]}}, {"type": "Feature", "properties": {"norad_id": 66991, "name": "CZ-3B R/B", "group": "last-30-days", "lat": 9.190867696214928, "lon": -40.261424626428365, "alt_km": 28949.851505064446, "timestamp": "2025-12-10T18:56:58.834672+00:00", "meta": {"OBJECT_NAME": "CZ-3B R/B", "OBJECT_ID": "2025-290B", "EPOCH": "2025-12-10T06:44:55.577184", "MEAN_MOTION": 2.37676924, "ECCENTRICITY": 0.7242056, "INCLINATION": 28.4645, "RA_OF_ASC_NODE": 302.5976, "ARG_OF_PERICENTER": 179.3847, "MEAN_ANOMALY": 182.8677, "EPHEMERIS_TYPE": 0, "CLASSIFICATION_TYPE": "U", "NORAD_CAT_ID": 66991, "ELEMENT_SET_NO": 999, "REV_AT_EPOCH": 3, "BSTAR": 0.00043781, "MEAN_MOTION_DOT": 0.00018897, "MEAN_MOTION_DDOT": 4.5621e-07}, "tle": {"line1": "1 66991U 25290B   25344.28119881  .00018897  45621-6  43781-3 0  9998", "line2": "2 66991  28.4645 302.5976 7242056 179.3847 182.8677  2.37676924    37"}}, "geometry": {"type": "Point", "coordinates": [-40.261424626428365, 9.190867696214928]}}]}